     2.100          NAVIGATION                              RINEX VERSION / TYPE
fic2rin                                 04/14/2013 00:22:12 PGM / RUN BY / DATE
                                                            END OF HEADER
31 13  4 14  0  0  0.0  .310539267957D-03  .147792889038D-11  .000000000000D+00
     .800000000000D+01 -.629062500000D+02  .436411035414D-08 -.157917568749D+01
    -.328756868839D-05  .795901694801D-02  .387802720070D-05  .515357409286D+04
     .000000000000D+00 -.176951289177D-06  .245434290615D+01 -.109896063805D-06
     .980534057168D+00  .319687500000D+03 -.746077680101D+00 -.819248410699D-08
    -.118576367753D-09  .100000000000D+01  .173600000000D+04  .000000000000D+00
     .240000000000D+01  .000000000000D+00 -.130385160446D-07  .800000000000D+01
     .597606000000D+06  .400000000000D+01
32 13  4 14  0  0  0.0 -.550132710487D-03 -.238742359215D-11  .000000000000D+00
     .690000000000D+02  .549687500000D+02  .446875757026D-08 -.102159281484D+01
     .278651714325D-05  .115592710208D-01  .103600323200D-04  .515372237206D+04
     .000000000000D+00 -.108033418655D-06  .422040228355D+00 -.197440385818D-06
     .949934249443D+00  .177281250000D+03 -.373566007701D+00 -.795033116320D-08
    -.346443002170D-10  .100000000000D+01  .173600000000D+04  .000000000000D+00
     .240000000000D+01  .000000000000D+00 -.325962901115D-08  .690000000000D+02
     .597606000000D+06  .400000000000D+01
22 13  4 13 23 59 44.0  .164338853210D-03  .125055521494D-11  .000000000000D+00
     .000000000000D+00  .394687500000D+02  .497056418681D-08  .214152548455D+01
     .206753611565D-05  .642962276470D-02  .105462968349D-04  .515365792274D+04
     .604784000000D+06 -.186264514923D-08  .459799682971D+00 -.137835741043D-06
     .925767615194D+00  .157000000000D+03 -.204542510417D+01 -.812926718804D-08
    -.162506769059D-09  .100000000000D+01  .173500000000D+04  .000000000000D+00
     .240000000000D+01  .000000000000D+00 -.172294676304D-07  .000000000000D+00
     .603456000000D+06  .400000000000D+01
